CCSDS_OMM_VERS = 2.0
CREATION_DATE  = 
ORIGINATOR     = 

OBJECT_NAME    = CYGNUS NG-23
OBJECT_ID      = 2025-208A
CENTER_NAME    = EARTH
REF_FRAME      = TEME
TIME_SYSTEM    = UTC
MEAN_ELEMENT_THEORY = SGP/SGP4

EPOCH          = 2025-12-27T04:18:31.505184
MEAN_MOTION    = 15.49864323
ECCENTRICITY   = .00032283
INCLINATION    = 51.6319
RA_OF_ASC_NODE = 70.9638
ARG_OF_PERICENTER = 308.9173
MEAN_ANOMALY   = 51.1527

EPHEMERIS_TYPE = 0
CLASSIFICATION_TYPE = U
NORAD_CAT_ID   = 65616
ELEMENT_SET_NO = 999
REV_AT_EPOCH   = 22
BSTAR          = .2516974E-3
MEAN_MOTION_DOT = .13867E-3
MEAN_MOTION_DDOT = 0

CCSDS_OMM_VERS = 2.0
CREATION_DATE  = 
ORIGINATOR     = 

OBJECT_NAME    = DRAGONFLY
OBJECT_ID      = 1998-067XH
CENTER_NAME    = EARTH
REF_FRAME      = TEME
TIME_SYSTEM    = UTC
MEAN_ELEMENT_THEORY = SGP/SGP4

EPOCH          = 2025-12-27T09:36:53.510976
MEAN_MOTION    = 15.77254600
ECCENTRICITY   = .0008326
INCLINATION    = 51.6252
RA_OF_ASC_NODE = 60.4091
ARG_OF_PERICENTER = 3.6197
MEAN_ANOMALY   = 356.4863

EPHEMERIS_TYPE = 0
CLASSIFICATION_TYPE = U
NORAD_CAT_ID   = 65729
ELEMENT_SET_NO = 999
REV_AT_EPOCH   = 1547
BSTAR          = .13487E-2
MEAN_MOTION_DOT = .232349E-2
MEAN_MOTION_DDOT = 0

CCSDS_OMM_VERS = 2.0
CREATION_DATE  = 
ORIGINATOR     = 

OBJECT_NAME    = 1998-067XK
OBJECT_ID      = 1998-067XK
CENTER_NAME    = EARTH
REF_FRAME      = TEME
TIME_SYSTEM    = UTC
MEAN_ELEMENT_THEORY = SGP/SGP4

EPOCH          = 2025-12-27T11:08:53.834208
MEAN_MOTION    = 15.68658441
ECCENTRICITY   = .0005069
INCLINATION    = 51.6288
RA_OF_ASC_NODE = 62.3700
ARG_OF_PERICENTER = 336.6665
MEAN_ANOMALY   = 23.4101

EPHEMERIS_TYPE = 0
CLASSIFICATION_TYPE = U
NORAD_CAT_ID   = 65731
ELEMENT_SET_NO = 999
REV_AT_EPOCH   = 1545
BSTAR          = .95755E-3
MEAN_MOTION_DOT = .112248E-2
MEAN_MOTION_DDOT = 0

CCSDS_OMM_VERS = 2.0
CREATION_DATE  = 
ORIGINATOR     = 

OBJECT_NAME    = RSP-03
OBJECT_ID      = 1998-067XL
CENTER_NAME    = EARTH
REF_FRAME      = TEME
TIME_SYSTEM    = UTC
MEAN_ELEMENT_THEORY = SGP/SGP4

EPOCH          = 2025-12-27T10:30:36.886752
MEAN_MOTION    = 15.72555826
ECCENTRICITY   = .0006137
INCLINATION    = 51.6262
RA_OF_ASC_NODE = 61.4259
ARG_OF_PERICENTER = 344.1369
MEAN_ANOMALY   = 15.9436

EPHEMERIS_TYPE = 0
CLASSIFICATION_TYPE = U
NORAD_CAT_ID   = 65732
ELEMENT_SET_NO = 999
REV_AT_EPOCH   = 1547
BSTAR          = .11231E-2
MEAN_MOTION_DOT = .156013E-2
MEAN_MOTION_DDOT = 0

CCSDS_OMM_VERS = 2.0
CREATION_DATE  = 
ORIGINATOR     = 

OBJECT_NAME    = GHS-01
OBJECT_ID      = 1998-067XM
CENTER_NAME    = EARTH
REF_FRAME      = TEME
TIME_SYSTEM    = UTC
MEAN_ELEMENT_THEORY = SGP/SGP4

EPOCH          = 2025-12-27T12:11:15.233280
MEAN_MOTION    = 15.81984355
ECCENTRICITY   = .000952
INCLINATION    = 51.6274
RA_OF_ASC_NODE = 58.8829
ARG_OF_PERICENTER = 8.1386
MEAN_ANOMALY   = 351.9769

EPHEMERIS_TYPE = 0
CLASSIFICATION_TYPE = U
NORAD_CAT_ID   = 65733
ELEMENT_SET_NO = 999
REV_AT_EPOCH   = 1551
BSTAR          = .15063E-2
MEAN_MOTION_DOT = .325699E-2
MEAN_MOTION_DDOT = 0

CCSDS_OMM_VERS = 2.0
CREATION_DATE  = 
ORIGINATOR     = 

OBJECT_NAME    = YOTSUBA-KULOVER
OBJECT_ID      = 1998-067XN
CENTER_NAME    = EARTH
REF_FRAME      = TEME
TIME_SYSTEM    = UTC
MEAN_ELEMENT_THEORY = SGP/SGP4

EPOCH          = 2025-12-27T06:00:30.216672
MEAN_MOTION    = 15.61434985
ECCENTRICITY   = .00027547
INCLINATION    = 51.6290
RA_OF_ASC_NODE = 66.9415
ARG_OF_PERICENTER = 9.1990
MEAN_ANOMALY   = 350.9054

EPHEMERIS_TYPE = 0
CLASSIFICATION_TYPE = U
NORAD_CAT_ID   = 65941
ELEMENT_SET_NO = 999
REV_AT_EPOCH   = 1212
BSTAR          = .83629815E-3
MEAN_MOTION_DOT = .72986E-3
MEAN_MOTION_DDOT = 0

CCSDS_OMM_VERS = 2.0
CREATION_DATE  = 
ORIGINATOR     = 

OBJECT_NAME    = BOTAN
OBJECT_ID      = 1998-067XP
CENTER_NAME    = EARTH
REF_FRAME      = TEME
TIME_SYSTEM    = UTC
MEAN_ELEMENT_THEORY = SGP/SGP4

EPOCH          = 2025-12-27T05:15:28.443744
MEAN_MOTION    = 15.66006349
ECCENTRICITY   = .00036864
INCLINATION    = 51.6275
RA_OF_ASC_NODE = 65.9806
ARG_OF_PERICENTER = 351.9823
MEAN_ANOMALY   = 8.1114

EPHEMERIS_TYPE = 0
CLASSIFICATION_TYPE = U
NORAD_CAT_ID   = 65942
ELEMENT_SET_NO = 999
REV_AT_EPOCH   = 1213
BSTAR          = .11595855E-2
MEAN_MOTION_DOT = .122237E-2
MEAN_MOTION_DDOT = 0

CCSDS_OMM_VERS = 2.0
CREATION_DATE  = 
ORIGINATOR     = 

OBJECT_NAME    = E-KAGAKU-1
OBJECT_ID      = 1998-067XQ
CENTER_NAME    = EARTH
REF_FRAME      = TEME
TIME_SYSTEM    = UTC
MEAN_ELEMENT_THEORY = SGP/SGP4

EPOCH          = 2025-12-26T11:34:38.215200
MEAN_MOTION    = 15.61326456
ECCENTRICITY   = .00014737
INCLINATION    = 51.6304
RA_OF_ASC_NODE = 70.8185
ARG_OF_PERICENTER = 333.5123
MEAN_ANOMALY   = 26.5795

EPHEMERIS_TYPE = 0
CLASSIFICATION_TYPE = U
NORAD_CAT_ID   = 65943
ELEMENT_SET_NO = 999
REV_AT_EPOCH   = 1200
BSTAR          = .7949653E-3
MEAN_MOTION_DOT = .69021E-3
MEAN_MOTION_DDOT = 0

CCSDS_OMM_VERS = 2.0
CREATION_DATE  = 
ORIGINATOR     = 

OBJECT_NAME    = HRC MONOBLOCK CAMERA
OBJECT_ID      = 1998-067XR
CENTER_NAME    = EARTH
REF_FRAME      = TEME
TIME_SYSTEM    = UTC
MEAN_ELEMENT_THEORY = SGP/SGP4

EPOCH          = 2025-12-27T07:22:24.496608
MEAN_MOTION    = 15.55156889
ECCENTRICITY   = .0001856
INCLINATION    = 51.6304
RA_OF_ASC_NODE = 68.8177
ARG_OF_PERICENTER = 258.0003
MEAN_ANOMALY   = 102.0780

EPHEMERIS_TYPE = 0
CLASSIFICATION_TYPE = U
NORAD_CAT_ID   = 66052
ELEMENT_SET_NO = 999
REV_AT_EPOCH   = 1110
BSTAR          = .51894E-3
MEAN_MOTION_DOT = .35345E-3
MEAN_MOTION_DDOT = 0

CCSDS_OMM_VERS = 2.0
CREATION_DATE  = 
ORIGINATOR     = 

OBJECT_NAME    = HTV-X1
OBJECT_ID      = 2025-241A
CENTER_NAME    = EARTH
REF_FRAME      = TEME
TIME_SYSTEM    = UTC
MEAN_ELEMENT_THEORY = SGP/SGP4

EPOCH          = 2025-12-27T04:18:31.505184
MEAN_MOTION    = 15.49864323
ECCENTRICITY   = .00032283
INCLINATION    = 51.6319
RA_OF_ASC_NODE = 70.9638
ARG_OF_PERICENTER = 308.9173
MEAN_ANOMALY   = 51.1527

EPHEMERIS_TYPE = 0
CLASSIFICATION_TYPE = U
NORAD_CAT_ID   = 66174
ELEMENT_SET_NO = 999
REV_AT_EPOCH   = 51
BSTAR          = .2516974E-3
MEAN_MOTION_DOT = .13867E-3
MEAN_MOTION_DDOT = 0

CCSDS_OMM_VERS = 2.0
CREATION_DATE  = 
ORIGINATOR     = 

OBJECT_NAME    = SZ-21 MODULE
OBJECT_ID      = 2025-246C
CENTER_NAME    = EARTH
REF_FRAME      = TEME
TIME_SYSTEM    = UTC
MEAN_ELEMENT_THEORY = SGP/SGP4

EPOCH          = 2025-12-27T11:48:49.053024
MEAN_MOTION    = 15.63283022
ECCENTRICITY   = .0004075
INCLINATION    = 41.4763
RA_OF_ASC_NODE = 286.0025
ARG_OF_PERICENTER = 340.5581
MEAN_ANOMALY   = 19.5103

EPHEMERIS_TYPE = 0
CLASSIFICATION_TYPE = U
NORAD_CAT_ID   = 66515
ELEMENT_SET_NO = 999
REV_AT_EPOCH   = 675
BSTAR          = .31547E-3
MEAN_MOTION_DOT = .29574E-3
MEAN_MOTION_DDOT = 0

CCSDS_OMM_VERS = 2.0
CREATION_DATE  = 
ORIGINATOR     = 

OBJECT_NAME    = SHENZHOU-22
OBJECT_ID      = 2025-272A
CENTER_NAME    = EARTH
REF_FRAME      = TEME
TIME_SYSTEM    = UTC
MEAN_ELEMENT_THEORY = SGP/SGP4

EPOCH          = 2025-12-27T06:02:45.823200
MEAN_MOTION    = 15.59750285
ECCENTRICITY   = .0008745
INCLINATION    = 41.4675
RA_OF_ASC_NODE = 288.5662
ARG_OF_PERICENTER = 157.7703
MEAN_ANOMALY   = 202.3516

EPHEMERIS_TYPE = 0
CLASSIFICATION_TYPE = U
NORAD_CAT_ID   = 66645
ELEMENT_SET_NO = 999
REV_AT_EPOCH   = 26598
BSTAR          = .24488937E-3
MEAN_MOTION_DOT = .1992E-3
MEAN_MOTION_DDOT = 0

